start=new Date('2022-10-01T00:00:00.000Z').valueOf();
sats=[{"BSTAR":"0.00157630000000","CENTER_NAME":"EARTH","FILE":"3587966","SITE":"AFETR","MEAN_MOTION_DOT":"0.00023555","TIME_SYSTEM":"UTC","ARG_OF_PERICENTER":"58.0857","REF_FRAME":"TEME","REV_AT_EPOCH":"14054","ECCENTRICITY":"0.00017610","MEAN_MOTION_DDOT":"0.0000000000000","PERIOD":"95.564","OBJECT_ID":"2020-019Y","OBJECT_TYPE":"PAYLOAD","EPHEMERIS_TYPE":"0","TLE_LINE1":"1 45382U 20019Y   22273.85108203  .00023555  00000-0  15763-2 0  9991","OBJECT_NAME":"STARLINK-1264","EPOCH":"2022-09-30T20:25:33.487392","TLE_LINE2":"2 45382  53.0541  24.2565 0001761  58.0857 302.0303 15.06836910140548","ELEMENT_SET_NO":"999","RA_OF_ASC_NODE":"24.2565","COUNTRY_CODE":"US","MEAN_MOTION":"15.06836910","PERIAPSIS":"544.655","RCS_SIZE":"LARGE","DECAY_DATE":null,"GP_ID":"213903134","NORAD_CAT_ID":"45382","MEAN_ANOMALY":"302.0303","CLASSIFICATION_TYPE":"U","LAUNCH_DATE":"2020-03-18","MEAN_ELEMENT_THEORY":"SGP4","SEMIMAJOR_AXIS":"6924.010","INCLINATION":"53.0541","APOAPSIS":"547.094"},{"BSTAR":"0.00074049000000","CENTER_NAME":"EARTH","FILE":"3587966","SITE":"AFETR","TIME_SYSTEM":"UTC","MEAN_MOTION_DOT":"0.00010771","REF_FRAME":"TEME","ARG_OF_PERICENTER":"78.9515","REV_AT_EPOCH":"14071","ECCENTRICITY":"0.00013720","MEAN_MOTION_DDOT":"0.0000000000000","PERIOD":"95.591","OBJECT_ID":"2020-019Z","OBJECT_TYPE":"PAYLOAD","EPHEMERIS_TYPE":"0","TLE_LINE1":"1 45383U 20019Z   22273.80222189  .00010771  00000-0  74049-3 0  9996","OBJECT_NAME":"STARLINK-1266","EPOCH":"2022-09-30T19:15:11.971296","ELEMENT_SET_NO":"999","TLE_LINE2":"2 45383  53.0554  24.5266 0001372  78.9515 281.1628 15.06419869140710","RA_OF_ASC_NODE":"24.5266","COUNTRY_CODE":"US","MEAN_MOTION":"15.06419869","PERIAPSIS":"546.203","RCS_SIZE":"LARGE","DECAY_DATE":null,"GP_ID":"213903362","NORAD_CAT_ID":"45383","MEAN_ANOMALY":"281.1628","CLASSIFICATION_TYPE":"U","LAUNCH_DATE":"2020-03-18","MEAN_ELEMENT_THEORY":"SGP4","SEMIMAJOR_AXIS":"6925.288","INCLINATION":"53.0554","APOAPSIS":"548.103"},{"ARG_OF_PERICENTER":"72.6909","REF_FRAME":"TEME","REV_AT_EPOCH":"14072","SITE":"AFETR","FILE":"3587966","TIME_SYSTEM":"UTC","MEAN_MOTION_DOT":"0.00007856","CENTER_NAME":"EARTH","BSTAR":"0.00054547000000","EPOCH":"2022-09-30T20:33:26.970624","TLE_LINE2":"2 45384  53.0553  24.2713 0001570  72.6909 287.4252 15.06417963140728","ELEMENT_SET_NO":"999","OBJECT_NAME":"STARLINK-1267","TLE_LINE1":"1 45384U 20019AA  22273.85656216  .00007856  00000-0  54547-3 0  9995","OBJECT_TYPE":"PAYLOAD","PERIOD":"95.591","OBJECT_ID":"2020-019AA","EPHEMERIS_TYPE":"0","MEAN_MOTION_DDOT":"0.0000000000000","ECCENTRICITY":"0.00015700","RCS_SIZE":"LARGE","GP_ID":"213902134","DECAY_DATE":null,"MEAN_MOTION":"15.06417963","PERIAPSIS":"546.071","COUNTRY_CODE":"US","RA_OF_ASC_NODE":"24.2713","SEMIMAJOR_AXIS":"6925.294","APOAPSIS":"548.246","INCLINATION":"53.0553","MEAN_ANOMALY":"287.4252","LAUNCH_DATE":"2020-03-18","MEAN_ELEMENT_THEORY":"SGP4","CLASSIFICATION_TYPE":"U","NORAD_CAT_ID":"45384"},{"RCS_SIZE":"LARGE","GP_ID":"213902384","DECAY_DATE":null,"MEAN_MOTION":"15.06406587","PERIAPSIS":"546.262","COUNTRY_CODE":"US","RA_OF_ASC_NODE":"24.8521","SEMIMAJOR_AXIS":"6925.328","APOAPSIS":"548.125","INCLINATION":"53.0551","MEAN_ANOMALY":"278.4557","MEAN_ELEMENT_THEORY":"SGP4","LAUNCH_DATE":"2020-03-18","CLASSIFICATION_TYPE":"U","NORAD_CAT_ID":"45386","REF_FRAME":"TEME","ARG_OF_PERICENTER":"81.6584","REV_AT_EPOCH":"14070","SITE":"AFETR","FILE":"3587966","MEAN_MOTION_DOT":"0.00003502","TIME_SYSTEM":"UTC","CENTER_NAME":"EARTH","BSTAR":"0.00025380000000","EPOCH":"2022-09-30T17:29:02.439744","TLE_LINE2":"2 45386  53.0551  24.8521 0001345  81.6584 278.4557 15.06406587140706","ELEMENT_SET_NO":"999","OBJECT_NAME":"STARLINK-1272","TLE_LINE1":"1 45386U 20019AC  22273.72850046  .00003502  00000-0  25380-3 0  9997","OBJECT_TYPE":"PAYLOAD","PERIOD":"95.592","OBJECT_ID":"2020-019AC","EPHEMERIS_TYPE":"0","MEAN_MOTION_DDOT":"0.0000000000000","ECCENTRICITY":"0.00013450"},{"EPHEMERIS_TYPE":"0","PERIOD":"95.591","OBJECT_ID":"2020-019AD","OBJECT_TYPE":"PAYLOAD","ECCENTRICITY":"0.00014270","MEAN_MOTION_DDOT":"0.0000000000000","TLE_LINE2":"2 45387  53.0557  24.7483 0001427  61.3059 298.8073 15.06411158140701","ELEMENT_SET_NO":"999","EPOCH":"2022-09-30T18:00:52.939008","OBJECT_NAME":"STARLINK-1274","TLE_LINE1":"1 45387U 20019AD  22273.75061272  .00001631  00000-0  12831-3 0  9994","CENTER_NAME":"EARTH","BSTAR":"0.00012831000000","REV_AT_EPOCH":"14070","ARG_OF_PERICENTER":"61.3059","REF_FRAME":"TEME","MEAN_MOTION_DOT":"0.00001631","TIME_SYSTEM":"UTC","FILE":"3587966","SITE":"AFETR","CLASSIFICATION_TYPE":"U","MEAN_ELEMENT_THEORY":"SGP4","LAUNCH_DATE":"2020-03-18","MEAN_ANOMALY":"298.8073","NORAD_CAT_ID":"45387","INCLINATION":"53.0557","APOAPSIS":"548.168","SEMIMAJOR_AXIS":"6925.314","COUNTRY_CODE":"US","RA_OF_ASC_NODE":"24.7483","DECAY_DATE":null,"GP_ID":"213903633","RCS_SIZE":"LARGE","PERIAPSIS":"546.191","MEAN_MOTION":"15.06411158"},{"RA_OF_ASC_NODE":"44.2937","COUNTRY_CODE":"US","PERIAPSIS":"546.197","MEAN_MOTION":"15.06402667","GP_ID":"213903861","DECAY_DATE":null,"RCS_SIZE":"LARGE","NORAD_CAT_ID":"45388","MEAN_ELEMENT_THEORY":"SGP4","LAUNCH_DATE":"2020-03-18","CLASSIFICATION_TYPE":"U","MEAN_ANOMALY":"284.7078","INCLINATION":"53.0557","APOAPSIS":"548.214","SEMIMAJOR_AXIS":"6925.340","BSTAR":"0.00063244000000","CENTER_NAME":"EARTH","TIME_SYSTEM":"UTC","MEAN_MOTION_DOT":"0.00009152","SITE":"AFETR","FILE":"3587966","REV_AT_EPOCH":"14043","ARG_OF_PERICENTER":"75.4072","REF_FRAME":"TEME","MEAN_MOTION_DDOT":"0.0000000000000","ECCENTRICITY":"0.00014560","EPHEMERIS_TYPE":"0","OBJECT_TYPE":"PAYLOAD","PERIOD":"95.592","OBJECT_ID":"2020-019AE","OBJECT_NAME":"STARLINK-1280","TLE_LINE1":"1 45388U 20019AE  22273.85199836  .00009152  00000-0  63244-3 0  9994","ELEMENT_SET_NO":"999","TLE_LINE2":"2 45388  53.0557  44.2937 0001456  75.4072 284.7078 15.06402667140430","EPOCH":"2022-09-30T20:26:52.658304"},{"GP_ID":"213902634","DECAY_DATE":null,"RCS_SIZE":"LARGE","PERIAPSIS":"546.074","MEAN_MOTION":"15.06403367","COUNTRY_CODE":"US","RA_OF_ASC_NODE":"24.6966","INCLINATION":"53.0552","APOAPSIS":"548.332","SEMIMAJOR_AXIS":"6925.338","LAUNCH_DATE":"2020-03-18","MEAN_ELEMENT_THEORY":"SGP4","CLASSIFICATION_TYPE":"U","MEAN_ANOMALY":"297.8278","NORAD_CAT_ID":"45389","REV_AT_EPOCH":"14071","REF_FRAME":"TEME","ARG_OF_PERICENTER":"62.2876","MEAN_MOTION_DOT":"0.00020205","TIME_SYSTEM":"UTC","SITE":"AFETR","FILE":"3587966","CENTER_NAME":"EARTH","BSTAR":"0.00137130000000","TLE_LINE2":"2 45389  53.0552  24.6966 0001630  62.2876 297.8278 15.06403367140716","ELEMENT_SET_NO":"999","EPOCH":"2022-09-30T18:22:08.583168","OBJECT_NAME":"STARLINK-1283","TLE_LINE1":"1 45389U 20019AF  22273.76537712  .00020205  00000-0  13713-2 0  9991","EPHEMERIS_TYPE":"0","OBJECT_TYPE":"PAYLOAD","OBJECT_ID":"2020-019AF","PERIOD":"95.592","MEAN_MOTION_DDOT":"0.0000000000000","ECCENTRICITY":"0.00016300"},{"DECAY_DATE":null,"GP_ID":"213902883","RCS_SIZE":"LARGE","PERIAPSIS":"546.267","MEAN_MOTION":"15.06395756","COUNTRY_CODE":"US","RA_OF_ASC_NODE":"25.3891","APOAPSIS":"548.186","INCLINATION":"53.0577","SEMIMAJOR_AXIS":"6925.362","CLASSIFICATION_TYPE":"U","MEAN_ELEMENT_THEORY":"SGP4","LAUNCH_DATE":"2020-03-18","MEAN_ANOMALY":"285.6508","NORAD_CAT_ID":"45390","REV_AT_EPOCH":"14068","REF_FRAME":"TEME","ARG_OF_PERICENTER":"74.4634","TIME_SYSTEM":"UTC","MEAN_MOTION_DOT":"0.00003178","FILE":"3587966","SITE":"AFETR","CENTER_NAME":"EARTH","BSTAR":"0.00023220000000","ELEMENT_SET_NO":"999","TLE_LINE2":"2 45390  53.0577  25.3891 0001386  74.4634 285.6508 15.06395756140684","EPOCH":"2022-09-30T14:33:53.299296","TLE_LINE1":"1 45390U 20019AG  22273.60686689  .00003178  00000-0  23220-3 0  9999","OBJECT_NAME":"STARLINK-1284","EPHEMERIS_TYPE":"0","PERIOD":"95.592","OBJECT_ID":"2020-019AG","OBJECT_TYPE":"PAYLOAD","ECCENTRICITY":"0.00013860","MEAN_MOTION_DDOT":"0.0000000000000"},{"MEAN_ANOMALY":"281.6853","CLASSIFICATION_TYPE":"U","MEAN_ELEMENT_THEORY":"SGP4","LAUNCH_DATE":"2020-03-18","NORAD_CAT_ID":"45391","SEMIMAJOR_AXIS":"6925.321","APOAPSIS":"548.208","INCLINATION":"53.0562","COUNTRY_CODE":"US","RA_OF_ASC_NODE":"24.4366","RCS_SIZE":"LARGE","DECAY_DATE":null,"GP_ID":"213903135","MEAN_MOTION":"15.06409003","PERIAPSIS":"546.164","PERIOD":"95.592","OBJECT_ID":"2020-019AH","OBJECT_TYPE":"PAYLOAD","EPHEMERIS_TYPE":"0","ECCENTRICITY":"0.00014760","MEAN_MOTION_DDOT":"0.0000000000000","EPOCH":"2022-09-30T19:40:22.183680","ELEMENT_SET_NO":"999","TLE_LINE2":"2 45391  53.0562  24.4366 0001476  78.4301 281.6853 15.06409003140445","OBJECT_NAME":"STARLINK-1289","TLE_LINE1":"1 45391U 20019AH  22273.81970120  .00002969  00000-0  21805-3 0  9993","CENTER_NAME":"EARTH","BSTAR":"0.00021805000000","REF_FRAME":"TEME","ARG_OF_PERICENTER":"78.4301","REV_AT_EPOCH":"14044","FILE":"3587966","SITE":"AFETR","TIME_SYSTEM":"UTC","MEAN_MOTION_DOT":"0.00002969"},{"LAUNCH_DATE":"2020-03-18","MEAN_ELEMENT_THEORY":"SGP4","CLASSIFICATION_TYPE":"U","MEAN_ANOMALY":"317.7933","NORAD_CAT_ID":"45392","INCLINATION":"52.9978","APOAPSIS":"516.037","SEMIMAJOR_AXIS":"6892.548","COUNTRY_CODE":"US","RA_OF_ASC_NODE":"6.5247","GP_ID":"213903363","DECAY_DATE":null,"RCS_SIZE":"LARGE","PERIAPSIS":"512.790","MEAN_MOTION":"15.17165710","EPHEMERIS_TYPE":"0","OBJECT_TYPE":"PAYLOAD","OBJECT_ID":"2020-019AJ","PERIOD":"94.914","MEAN_MOTION_DDOT":"0.0000000000000","ECCENTRICITY":"0.00023550","ELEMENT_SET_NO":"999","TLE_LINE2":"2 45392  52.9978   6.5247 0002355  42.3241 317.7933 15.17165710140631","EPOCH":"2022-09-30T18:11:47.443200","TLE_LINE1":"1 45392U 20019AJ  22273.75818800  .00033762  00000-0  16877-2 0  9990","OBJECT_NAME":"STARLINK-1290","CENTER_NAME":"EARTH","BSTAR":"0.00168770000000","REV_AT_EPOCH":"14063","ARG_OF_PERICENTER":"42.3241","REF_FRAME":"TEME","MEAN_MOTION_DOT":"0.00033762","TIME_SYSTEM":"UTC","SITE":"AFETR","FILE":"3587966"}];
